[
    {
        "Altitude(m)": 605459.0658836144,
        "Argument of Periapsis(deg)": 0.0,
        "Eccentricity": 0.0,
        "Inclination(deg)": 60.0,
        "Latitude(deg)": 27.98833441603728,
        "Longitude(deg)": 112.79859798007128,
        "Mean Anomaly(deg)": 32.727299999999985,
        "RAAN(deg)": 195.00000000000003,
        "Satellite Name": "Test1 860",
        "Satellite Number": 860,
        "Semi-Major Axis(m)": 6980739.136638005,
        "Time(s)": 0
    },
    {
        "Altitude(m)": 605535.8572967766,
        "Argument of Periapsis(deg)": 0.00010418945913296404,
        "Eccentricity": 0.0,
        "Inclination(deg)": 60.0,
        "Latitude(deg)": 28.50146375546838,
        "Longitude(deg)": 113.15554374752946,
        "Mean Anomaly(deg)": 33.34740614546184,
        "RAAN(deg)": 194.99957995086024,
        "Satellite Name": "Test1 860",
        "Satellite Number": 860,
        "Semi-Major Axis(m)": 6980739.136638005,
        "Time(s)": 10
    }
]